[
    {
        "Altitude(m)": 604969.0891982776,
        "Argument of Periapsis(deg)": 0.0,
        "Eccentricity": 0.0,
        "Inclination(deg)": 60.0,
        "Latitude(deg)": -0.09271240578761202,
        "Longitude(deg)": -130.02247250067754,
        "Mean Anomaly(deg)": 0.0,
        "RAAN(deg)": 330.0,
        "Satellite Name": "Test1 1452",
        "Satellite Number": 1452,
        "Semi-Major Axis(m)": 6980739.136638005,
        "Time(s)": 0
    },
    {
        "Altitude(m)": 604900.0283317881,
        "Argument of Periapsis(deg)": 0.00010418945913296404,
        "Eccentricity": 0.0,
        "Inclination(deg)": 60.0,
        "Latitude(deg)": 0.4477131807675636,
        "Longitude(deg)": -129.75434885747208,
        "Mean Anomaly(deg)": 0.620106145461853,
        "RAAN(deg)": 329.9995799508602,
        "Satellite Name": "Test1 1452",
        "Satellite Number": 1452,
        "Semi-Major Axis(m)": 6980739.136638005,
        "Time(s)": 10
    }
]